FENGYUN 1C DEB          
1 29974U 99025KY  26197.20837697  .00001189  00000+0  62200-3 0  9994
2 29974  98.8869 285.6512 0047420 186.8723 202.3789 14.15726240999732
FENGYUN 1C DEB          
1 29975U 99025KZ  26197.66546185  .00000489  00000+0  35536-3 0  9998
2 29975  99.3106 247.1442 0114388 144.0567 338.1553 13.98119865994548
FENGYUN 1C DEB          
1 29976U 99025LA  26197.60473330  .00000085  00000+0  66334-4 0  9997
2 29976  98.9268 194.3123 0268095   2.9592 111.1160 13.98335031993533
FENGYUN 1C DEB          
1 29977U 99025LB  26197.55832887  .00000684  00000+0  41111-3 0  9998
2 29977  98.3813  48.7065 0128665   4.4385  24.7691 14.05801743993924
FENGYUN 1C DEB          
1 29978U 99025LC  26197.67213308  .00000323  00000+0  26117-3 0  9992
2 29978  99.0304 249.2225 0076099 179.0562 308.0593 13.95975011993290
FENGYUN 1C DEB          
1 29979U 99025LD  26197.65027125  .00000389  00000+0  16903-3 0  9995
2 29979  98.3543 216.1644 0105132 248.1518 230.8760 14.26415228 11514
FENGYUN 1C DEB          
1 29980U 99025LE  26197.41456727 -.00000054  00000+0 -76929-5 0  9992
2 29980  98.5758   0.0439 0087441 358.6615  29.9702 14.06444280   211
FENGYUN 1C DEB          
1 29982U 99025LG  26197.59335197  .00001022  00000+0  17010-3 0  9998
2 29982  99.3928  55.6301 0119358 350.7655  28.1789 14.68378322 34501
FENGYUN 1C DEB          
1 29985U 99025LK  26197.61864375  .00000031  00000+0  41493-4 0  9991
2 29985  98.7006 210.8439 0027847 320.5550 154.4263 14.10364541  3917
FENGYUN 1C DEB          
1 29986U 99025LL  26197.73184579  .00001484  00000+0  58389-3 0  9990
2 29986  99.3887 287.2837 0024725  98.7300  52.9978 14.30775995  5683
FENGYUN 1C DEB          
1 29987U 99025LM  26197.68453153  .00001740  00000+0  87313-3 0  9996
2 29987  98.8896  94.1743 0080620 339.8218  75.2625 14.16239079994284
FENGYUN 1C DEB          
1 29988U 99025LN  26197.79988887  .00003240  00000+0  71600-3 0  9995
2 29988  98.7043 314.5112 0114838  81.9738  69.6496 14.53974309 12005
FENGYUN 1C DEB          
1 29989U 99025LP  26197.50453170  .00000098  00000+0  67184-4 0  9998
2 29989  98.6898 175.8474 0122264 298.3352 180.5710 14.15981328  6608
FENGYUN 1C DEB          
1 29992U 99025LS  26197.54335814  .00000002  00000+0  24334-4 0  9995
2 29992  98.7401 192.0604 0087392 275.5778 206.9279 14.11692768  4323
FENGYUN 1C DEB          
1 29993U 99025LT  26197.63206168 -.00000101  00000+0 -34011-4 0  9990
2 29993  98.7659 233.5069 0040246  65.8801 294.6570 14.08212993  2093
FENGYUN 1C DEB          
1 29994U 99025LU  26197.58935103  .00000021  00000+0  38784-4 0  9993
2 29994  98.8043 228.0046 0129150 332.2361 179.5896 14.02773072997527
FENGYUN 1C DEB          
1 29996U 99025LW  26197.68426252  .00001692  00000+0  89816-3 0  9992
2 29996  99.2931 247.3143 0130479 204.4532 280.5260 14.10746839991801
FENGYUN 1C DEB          
1 29997U 99025LX  26197.57483256  .00000209  00000+0  16190-3 0  9996
2 29997  98.8778 207.2699 0082074  88.1797  27.8324 14.01258472994126
FENGYUN 1C DEB          
1 29998U 99025LY  26197.48689818  .00000829  00000+0  34440-3 0  9995
2 29998  99.2895 277.0233 0006265  72.5852 287.6013 14.29440499  9566
FENGYUN 1C DEB          
1 29999U 99025LZ  26197.53874066  .00000230  00000+0  10771-3 0  9990
2 29999  98.5952 180.7372 0186798 221.7678 257.7196 14.20557042  7866
FENGYUN 1C DEB          
1 30001U 99025MA  26197.75416213  .00003448  00000+0  10599-2 0  9997
2 30001  98.9542 287.7185 0038473 173.0683 338.6956 14.41821898  5342
FENGYUN 1C DEB          
1 30003U 99025MC  26197.55589858  .00000152  00000+0  16107-3 0  9994
2 30003  99.5967 182.3879 0141445 268.6099 185.6017 13.85807194984779
FENGYUN 1C DEB          
1 30004U 99025MD  26197.77628682  .00000546  00000+0  28969-3 0  9994
2 30004  99.2261  32.0724 0038997  92.4291 331.3106 14.17661994  3669
FENGYUN 1C DEB          
1 30005U 99025ME  26194.83408252  .00000350  00000+0  40818-3 0  9998
2 30005  99.3196 149.2818 0343515 274.6258  81.5729 13.52774066958279
FENGYUN 1C DEB          
1 30007U 99025MG  26197.68177133  .00001561  00000+0  64799-3 0  9996
2 30007  99.1714 114.2480 0063525 113.1229 312.2639 14.26950543  4349
FENGYUN 1C DEB          
1 30008U 99025MH  26197.53635681  .00003416  00000+0  55620-3 0  9992
2 30008  99.3788 190.5380 0034378 253.5496 224.5702 14.71477453 22292
FENGYUN 1C DEB          
1 30009U 99025MJ  26197.64401574  .00000459  00000+0  30388-3 0  9995
2 30009  98.9980 256.0158 0065548  92.2596 268.6078 14.05441262995150
FENGYUN 1C DEB          
1 30010U 99025MK  26197.55201544  .00000064  00000+0  46580-4 0  9996
2 30010  99.0613  41.8379 0072269 310.2821  69.1701 14.25104736 13336
FENGYUN 1C DEB          
1 30012U 99025MM  26197.69024161  .00000094  00000+0  11389-3 0  9992
2 30012  99.4340 257.7262 0135057 291.3081 187.8833 13.85892598985393
FENGYUN 1C DEB          
1 30013U 99025MN  26197.63525874  .00000125  00000+0  13559-3 0  9990
2 30013  99.5617 227.4418 0127625 189.0601 299.5757 13.87956618986766
FENGYUN 1C DEB          
1 30015U 99025MQ  26197.34103549  .00000540  00000+0  22041-3 0  9998
2 30015  99.2228 218.4867 0036743 221.1647 154.1162 14.31462012 12518
FENGYUN 1C DEB          
1 30016U 99025MR  26197.82233618  .00006177  00000+0  73557-3 0  9993
2 30016  98.8883 238.5415 0042600  78.3641 336.9284 14.84120998 26543
FENGYUN 1C DEB          
1 30017U 99025MS  26197.61848553  .00000304  00000+0  54312-4 0  9996
2 30017  98.7249 259.4766 0215087 229.9341 128.2823 14.61642245 35979
FENGYUN 1C DEB          
1 30018U 99025MT  26197.23268194  .00001661  00000+0  23172-3 0  9998
2 30018  98.7524 301.9813 0112052 238.3664 151.0444 14.75092108 36125
FENGYUN 1C DEB          
1 30020U 99025MV  26197.57620464 -.00000010  00000+0  17416-4 0  9993
2 30020  98.8481 201.1064 0182205 185.7498 302.6800 14.04821804996880
FENGYUN 1C DEB          
1 30021U 99025MW  26197.57224083  .00000289  00000+0  20161-3 0  9998
2 30021  98.8488 188.6801 0073567  43.3205  71.5759 14.04969641999623
FENGYUN 1C DEB          
1 30022U 99025MX  26197.55056095  .00000022  00000+0  29989-4 0  9996
2 30022  99.0504  56.9912 0067742  11.5679   8.4460 14.23197433 12601
FENGYUN 1C DEB          
1 30023U 99025MY  26197.57132477  .00000283  00000+0  17828-3 0  9995
2 30023  99.2838  43.8645 0046325 179.2184 244.0572 14.12174093  2425
FENGYUN 1C DEB          
1 30028U 99025ND  26197.54645161  .00000560  00000+0  11379-3 0  9999
2 30028  98.1572 189.9704 0171096 278.7061 201.8321 14.56499884 28623
FENGYUN 1C DEB          
1 30035U 99025NL  26197.58405604  .00000029  00000+0  25573-4 0  9999
2 30035  99.2770 134.0940 0114982 152.7195  20.3905 14.37075988 22244
FENGYUN 1C DEB          
1 30036U 99025NM  26197.65354389  .00000505  00000+0  12370-3 0  9990
2 30036  98.2322 224.0549 0186636 269.1721 220.2898 14.46987219 22954
FENGYUN 1C DEB          
1 30037U 99025NN  26197.41541220  .00000175  00000+0  66159-4 0  9995
2 30037  98.4066 172.1227 0173738 132.4589  18.2154 14.34377868 18798
FENGYUN 1C DEB          
1 30038U 99025NP  26197.57457744  .00000257  00000+0  67466-4 0  9993
2 30038  98.3847 185.7116 0255158 173.5419 314.3914 14.39873440 19974
FENGYUN 1C DEB          
1 30040U 99025NR  26197.55908022  .00001938  00000+0  63696-3 0  9991
2 30040  98.2233 209.9355 0032956  26.4749  90.1867 14.39016614 10160
FENGYUN 1C DEB          
1 30041U 99025NS  26197.57783176  .00000281  00000+0  17486-3 0  9991
2 30041  99.4832 321.6245 0033798 338.9914  36.5237 14.13530119  3338
FENGYUN 1C DEB          
1 30043U 99025NU  26197.21575276  .00001091  00000+0  32895-3 0  9995
2 30043  98.6291 296.4992 0279065 223.3143 134.5796 14.24525622  4052
FENGYUN 1C DEB          
1 30044U 99025NV  26197.47988130  .00002759  00000+0  63778-3 0  9997
2 30044  98.2104 118.2630 0073621 222.7337 136.8121 14.54338100 11703
FENGYUN 1C DEB          
1 30045U 99025NW  26197.66864387  .00002113  00000+0  91224-3 0  9997
2 30045  99.1677 247.0283 0091693 215.4486 262.7077 14.23378102997587
FENGYUN 1C DEB          
1 30047U 99025NY  26197.47350816  .00000132  00000+0  12684-3 0  9997
2 30047  99.9391  15.6678 0126410 109.5119 279.5089 13.94754586989232
FENGYUN 1C DEB          
1 30048U 99025NZ  26197.03468792  .00000107  00000+0  12265-3 0  9990
2 30048  98.6432  49.7275 0187677  23.7850 133.3307 13.80014406980952
FENGYUN 1C DEB          
1 30050U 99025PB  26197.28384471  .00000533  00000+0  43592-3 0  9991
2 30050  96.8274 104.1921 0169989 133.8283 347.5904 13.85545555981864
FENGYUN 1C DEB          
1 30052U 99025PD  26197.30659903  .00000174  00000+0  17322-3 0  9994
2 30052  99.2793 221.8164 0289433  27.5875  34.4389 13.73212145975133
FENGYUN 1C DEB          
1 30053U 99025PE  26197.39757869  .00002774  00000+0  13180-2 0  9999
2 30053  98.5982   1.0981 0325918  99.2039 296.0963 13.95802973979932
FENGYUN 1C DEB          
1 30054U 99025PF  26197.60257470  .00000309  00000+0  30458-3 0  9997
2 30054  99.3467 229.1556 0276502 163.3905 325.5031 13.70098792973049
FENGYUN 1C DEB          
1 30056U 99025PH  26197.38777510  .00000804  00000+0  64246-3 0  9998
2 30056  98.3401   0.9751 0295341 347.8642  11.5501 13.74966033969381
FENGYUN 1C DEB          
1 30057U 99025PJ  26197.44577847  .00000603  00000+0  68566-3 0  9993
2 30057  98.8667 250.4798 0287904 308.8170 117.7825 13.57556762961625
FENGYUN 1C DEB          
1 30058U 99025PK  26197.47232294  .00000253  00000+0  35300-3 0  9992
2 30058  99.6506 199.7827 0314709 337.0000 177.2777 13.48515696957550
FENGYUN 1C DEB          
1 30059U 99025PL  26197.87370134  .00000131  00000+0  20036-3 0  9998
2 30059  98.8394 172.7014 0328022 114.1429 279.2815 13.45610400957044
FENGYUN 1C DEB          
1 30060U 99025PM  26197.53628682  .00000634  00000+0  81884-3 0  9993
2 30060  99.3017  53.5780 0341501 254.2400 131.9857 13.44328560951420
FENGYUN 1C DEB          
1 30061U 99025PN  26197.39781597  .00001189  00000+0  13421-2 0  9990
2 30061 101.8959 352.4582 0367456 120.7792 271.3600 13.47729447950037
